NORAD_CAT_ID,OBJECT_NAME,OBJECT_TYPE,EPOCH,MEAN_MOTION,ECCENTRICITY,INCLINATION,RA_OF_ASC_NODE,ARG_OF_PERICENTER,MEAN_ANOMALY,BSTAR,MEAN_MOTION_DOT,MEAN_MOTION_DDOT,TLE_LINE0,TLE_LINE1,TLE_LINE2,SEMIMAJOR_AXIS,PERIOD,APOGEE,PERIGEE,DECAYED
52294.0,STARLINK-3777,PAYLOAD,2023-08-21 13:01:58,15.08843895,0.0001119,53.2171,319.2026,83.0455,277.0665,0.00012253,1.663e-05,0.0,0 STARLINK-3777,1 52294U 22041AK  23233.54303609  .00001663  00000-0  12253-3 0  9996,2 52294  53.2171 319.2026 0001119  83.0455 277.0665 15.08843895 75155,6917.868,95.437,540.508,538.959,0.0
52294.0,STARLINK-3777,PAYLOAD,2023-08-22 11:17:23,15.08824219,0.0001192,53.217,315.041,86.4187,273.6941,0.0004013,6.102e-05,0.0,0 STARLINK-3777,1 52294U 22041AK  23234.47040807  .00006102  00000-0  40130-3 0  9995,2 52294  53.2170 315.0410 0001192  86.4187 273.6941 15.08824219 75298,6917.929,95.439,540.618,538.969,0.0
52294.0,STARLINK-3777,PAYLOAD,2023-08-23 00:00:27,15.08841633,0.0001128,53.2165,312.6629,79.2946,280.8174,0.00012796,1.749e-05,0.0,0 STARLINK-3777,1 52294U 22041AK  23235.00032047  .00001749  00000-0  12796-3 0  9991,2 52294  53.2165 312.6629 0001128  79.2946 280.8174 15.08841633 75375,6917.875,95.437,540.521,538.96,0.0
52294.0,STARLINK-3777,PAYLOAD,2023-08-24 09:23:34,15.08833686,0.0001323,53.2169,306.4194,73.976,286.1378,5.1368e-05,5.3e-06,0.0,0 STARLINK-3777,1 52294U 22041AK  23236.39136671  .00000530  00000-0  51368-4 0  9998,2 52294  53.2169 306.4194 0001323  73.9760 286.1378 15.08833686 74361,6917.9,95.438,540.68,538.849,0.0
52294.0,STARLINK-3777,PAYLOAD,2023-08-25 01:17:25,15.08843837,0.0001132,53.2171,303.4448,83.6415,276.4706,0.00011303,1.512e-05,0.0,0 STARLINK-3777,1 52294U 22041AK  23237.05376216  .00001512  00000-0  11303-3 0  9998,2 52294  53.2171 303.4448 0001132  83.6415 276.4706 15.08843837 75688,6917.869,95.437,540.517,538.951,0.0
52294.0,STARLINK-3777,PAYLOAD,2023-08-25 10:49:43,15.08847468,0.0001202,53.2162,301.6592,87.8638,272.2492,0.00017405,2.484e-05,0.0,0 STARLINK-3777,1 52294U 22041AK  23237.45119995  .00002484  00000-0  17405-3 0  9999,2 52294  53.2162 301.6592 0001202  87.8638 272.2492 15.08847468 74521,6917.858,95.437,540.554,538.891,0.0
52294.0,STARLINK-3777,PAYLOAD,2023-08-25 23:32:48,15.08840463,0.000118,53.2159,299.2786,101.883,258.2294,0.00012555,1.711e-05,0.0,0 STARLINK-3777,1 52294U 22041AK  23237.98112260  .00001711  00000-0  12555-3 0  9998,2 52294  53.2159 299.2786 0001180 101.8830 258.2294 15.08840463 75826,6917.879,95.438,540.56,538.928,0.0
52294.0,STARLINK-3777,PAYLOAD,2023-08-26 10:40:31,15.08837197,0.00013,53.2163,297.1991,76.9568,283.1569,0.00011699,1.574e-05,0.0,0 STARLINK-3777,1 52294U 22041AK  23238.44480659  .00001574  00000-0  11699-3 0  9995,2 52294  53.2163 297.1991 0001300  76.9568 283.1569 15.08837197 74674,6917.889,95.438,540.653,538.855,0.0
52294.0,STARLINK-3777,PAYLOAD,2023-08-27 02:34:22,15.08836853,0.0001379,53.216,294.2258,74.6511,285.4633,4.3019e-05,3.97e-06,0.0,0 STARLINK-3777,1 52294U 22041AK  23239.10720896  .00000397  00000-0  43019-4 0  9993,2 52294  53.2160 294.2258 0001379  74.6511 285.4633 15.08836853 75995,6917.89,95.438,540.709,538.801,0.0
52294.0,STARLINK-3777,PAYLOAD,2023-08-27 08:55:55,15.08846633,0.0001563,53.2163,293.0361,104.6868,255.4298,-0.00011938,-2.188e-05,0.0,0 STARLINK-3777,1 52294U 22041AK  23239.37216488 -.00002188  00000-0 -11938-3 0  9995,2 52294  53.2163 293.0361 0001563 104.6868 255.4298 15.08846633 74815,6917.86,95.437,540.806,538.644,0.0
52294.0,STARLINK-3777,PAYLOAD,2023-08-27 13:42:04,15.08840117,0.0001115,53.2161,292.1432,95.6132,264.4987,4.7344e-05,4.66e-06,0.0,0 STARLINK-3777,1 52294U 22041AK  23239.57088567  .00000466  00000-0  47344-4 0  9998,2 52294  53.2161 292.1432 0001115  95.6132 264.4987 15.08840117 74847,6917.88,95.438,540.516,538.974,0.0
52294.0,STARLINK-3777,PAYLOAD,2023-08-28 02:25:09,15.08864218,0.0001065,53.216,289.7638,87.159,272.9524,-0.00031713,-5.335e-05,0.0,0 STARLINK-3777,1 52294U 22041AK  23240.10080131 -.00005335  00000-0 -31713-3 0  9992,2 52294  53.2160 289.7638 0001065  87.1590 272.9524 15.08864218 76148,6917.806,95.436,540.408,538.935,0.0
52294.0,STARLINK-3777,PAYLOAD,2023-08-28 10:22:05,15.08841074,0.000126,53.216,288.2772,83.5869,276.5267,0.0001335,1.837e-05,0.0,0 STARLINK-3777,1 52294U 22041AK  23240.43200460  .00001837  00000-0  13350-3 0  9995,2 52294  53.2160 288.2772 0001260  83.5869 276.5267 15.08841074 76191,6917.877,95.437,540.614,538.87,0.0
52294.0,STARLINK-3777,PAYLOAD,2023-08-28 19:54:24,15.08839359,0.0001231,53.2159,286.4933,82.8853,277.2279,7.9618e-05,9.79e-06,0.0,0 STARLINK-3777,1 52294U 22041AK  23240.82944695  .00000979  00000-0  79618-4 0  9999,2 52294  53.2159 286.4933 0001231  82.8853 277.2279 15.08839359 75037,6917.882,95.438,540.599,538.896,0.0
52294.0,STARLINK-3777,PAYLOAD,2023-08-28 23:05:10,15.08832611,0.0001265,53.2162,285.8989,86.5471,273.5666,9.5675e-05,1.235e-05,0.0,0 STARLINK-3777,1 52294U 22041AK  23240.96193084  .00001235  00000-0  95675-4 0  9999,2 52294  53.2162 285.8989 0001265  86.5471 273.5666 15.08832611 76279,6917.903,95.438,540.643,538.893,0.0
52294.0,STARLINK-3777,PAYLOAD,2023-08-29 11:48:15,15.08839656,0.0001263,53.2162,283.5202,88.5428,271.5709,0.00011092,1.478e-05,0.0,0 STARLINK-3777,1 52294U 22041AK  23241.49184808  .00001478  00000-0  11092-3 0  9991,2 52294  53.2162 283.5202 0001263  88.5428 271.5709 15.08839656 75130,6917.881,95.438,540.62,538.873,0.0
52294.0,STARLINK-3777,PAYLOAD,2023-08-30 08:28:16,15.08836006,0.0001325,53.2164,279.6552,91.612,268.5023,1.6394e-05,-2.7e-07,0.0,0 STARLINK-3777,1 52294U 22041AK  23242.35297403 -.00000027  00000-0  16394-4 0  9994,2 52294  53.2164 279.6552 0001325  91.6120 268.5023 15.08836006 76489,6917.893,95.438,540.674,538.841,0.0
52294.0,STARLINK-3777,PAYLOAD,2023-08-30 19:35:58,15.08838688,0.0001263,53.2162,277.5729,87.2279,272.8858,4.5842e-05,4.42e-06,0.0,0 STARLINK-3777,1 52294U 22041AK  23242.81665186  .00000442  00000-0  45842-4 0  9992,2 52294  53.2162 277.5729 0001263  87.2279 272.8858 15.08838688 75332,6917.884,95.438,540.623,538.876,0.0
52294.0,STARLINK-3777,PAYLOAD,2023-08-31 11:29:49,15.08843932,0.0001278,53.216,274.5985,87.281,272.8328,8.3533e-05,1.042e-05,0.0,0 STARLINK-3777,1 52294U 22041AK  23243.47904809  .00001042  00000-0  83533-4 0  9999,2 52294  53.2160 274.5985 0001278  87.2810 272.8328 15.08843932 76654,6917.868,95.437,540.617,538.849,0.0
52294.0,STARLINK-3777,PAYLOAD,2023-09-01 08:09:50,15.08841203,0.0001337,53.2158,270.7327,86.8569,273.2576,0.00011811,1.592e-05,0.0,0 STARLINK-3777,1 52294U 22041AK  23244.34016952  .00001592  00000-0  11811-3 0  9998,2 52294  53.2158 270.7327 0001337  86.8569 273.2576 15.08841203 75569,6917.877,95.437,540.667,538.817,0.0
52294.0,STARLINK-3777,PAYLOAD,2023-09-01 19:17:32,15.08843729,0.0001385,53.2164,268.6517,85.9059,274.2091,0.00010786,1.429e-05,0.0,0 STARLINK-3777,1 52294U 22041AK  23244.80384788  .00001429  00000-0  10786-3 0  9993,2 52294  53.2164 268.6517 0001385  85.9059 274.2091 15.08843729 76851,6917.869,95.437,540.692,538.776,0.0
52294.0,STARLINK-3777,PAYLOAD,2023-09-02 08:00:37,15.08847036,0.0001461,53.2167,266.2732,85.8962,274.2197,9.0883e-05,1.159e-05,0.0,0 STARLINK-3777,1 52294U 22041AK  23245.33376533  .00001159  00000-0  90883-4 0  9998,2 52294  53.2167 266.2732 0001461  85.8962 274.2197 15.08847036 75710,6917.859,95.437,540.735,538.713,0.0
52294.0,STARLINK-3777,PAYLOAD,2023-09-03 01:29:51,15.08842317,0.0001406,53.2151,263.0002,94.8173,265.298,4.2575e-05,3.9e-06,0.0,0 STARLINK-3777,1 52294U 22041AK  23246.06240706  .00000390  00000-0  42575-4 0  9992,2 52294  53.2151 263.0002 0001406  94.8173 265.2980 15.08842317 77046,6917.873,95.437,540.711,538.766,0.0
52294.0,STARLINK-3777,PAYLOAD,2023-09-03 07:51:24,15.08843957,0.0001394,53.2162,261.8112,94.6681,265.4471,4.7107e-05,4.62e-06,0.0,0 STARLINK-3777,1 52294U 22041AK  23246.32736574  .00000462  00000-0  47107-4 0  9990,2 52294  53.2162 261.8112 0001394  94.6681 265.4471 15.08843957 75860,6917.868,95.437,540.698,538.769,0.0
52294.0,STARLINK-3777,PAYLOAD,2023-09-04 01:20:39,15.08835216,0.000151,53.2162,258.5408,91.9911,268.1254,-3.6686e-05,-8.72e-06,0.0,0 STARLINK-3777,1 52294U 22041AK  23247.05601451 -.00000872  00000-0 -36686-4 0  9993,2 52294  53.2162 258.5408 0001510  91.9911 268.1254 15.08835216 77193,6917.895,95.438,540.805,538.715,0.0
52294.0,STARLINK-3777,PAYLOAD,2023-09-04 07:42:12,15.08835404,0.0001515,53.2162,257.3509,93.7793,266.3372,-3.2594e-05,-8.07e-06,0.0,0 STARLINK-3777,1 52294U 22041AK  23247.32097492 -.00000807  00000-0 -32594-4 0  9999,2 52294  53.2162 257.3509 0001515  93.7793 266.3372 15.08835404 76015,6917.894,95.438,540.807,538.711,0.0
52294.0,STARLINK-3777,PAYLOAD,2023-09-05 01:11:26,15.08835786,0.0001452,53.216,254.0799,93.9209,266.195,4.2688e-05,3.91e-06,0.0,0 STARLINK-3777,1 52294U 22041AK  23248.04961458  .00000391  00000-0  42688-4 0  9992,2 52294  53.2160 254.0799 0001452  93.9209 266.1950 15.08835786 76127,6917.893,95.438,540.763,538.754,0.0
52294.0,STARLINK-3777,PAYLOAD,2023-09-05 17:05:17,15.08841556,0.0001354,53.2159,251.1061,94.1072,266.0075,3.0741e-05,2.01e-06,0.0,0 STARLINK-3777,1 52294U 22041AK  23248.71201214  .00000201  00000-0  30741-4 0  9990,2 52294  53.2159 251.1061 0001354  94.1072 266.0075 15.08841556 77442,6917.876,95.437,540.677,538.804,0.0
52294.0,STARLINK-3777,PAYLOAD,2023-09-06 01:02:14,15.08833622,0.0001389,53.2162,249.6197,94.4381,265.677,7.714e-05,9.4e-06,0.0,0 STARLINK-3777,1 52294U 22041AK  23249.04321761  .00000940  00000-0  77140-4 0  9991,2 52294  53.2162 249.6197 0001389  94.4381 265.6770 15.08833622 77499,6917.9,95.438,540.726,538.804,0.0
52294.0,STARLINK-3777,PAYLOAD,2023-09-06 16:56:05,15.08836922,0.0001384,53.216,246.6458,93.5758,266.5392,7.7442e-05,9.45e-06,0.0,0 STARLINK-3777,1 52294U 22041AK  23249.70561798  .00000945  00000-0  77442-4 0  9990,2 52294  53.2160 246.6458 0001384  93.5758 266.5392 15.08836922 76379,6917.89,95.438,540.712,538.797,0.0
